start=new Date('2023-03-20T00:00:00.000Z').valueOf();
sats=[{"PERIOD":"95.592","EPHEMERIS_TYPE":"0","RCS_SIZE":"LARGE","CLASSIFICATION_TYPE":"U","MEAN_MOTION_DOT":"0.00008394","OBJECT_NAME":"STARLINK-1591","NORAD_CAT_ID":"46045","SEMIMAJOR_AXIS":"6925.323","ECCENTRICITY":"0.00010000","SITE":"AFETR","COUNTRY_CODE":"US","TIME_SYSTEM":"UTC","MEAN_ANOMALY":"302.8975","OBJECT_ID":"2020-055U","GP_ID":"228474406","REV_AT_EPOCH":"14521","REF_FRAME":"TEME","TLE_LINE1":"1 46045U 20055U   23078.88439268  .00008394  00000-0  58159-3 0  9994","BSTAR":"0.00058159000000","MEAN_MOTION_DDOT":"0.0000000000000","RA_OF_ASC_NODE":"320.9934","PERIAPSIS":"546.496","CENTER_NAME":"EARTH","INCLINATION":"53.0534","MEAN_MOTION":"15.06408315","OBJECT_TYPE":"PAYLOAD","TLE_LINE2":"2 46045  53.0534 320.9934 0001000  57.2110 302.8975 15.06408315145218","ELEMENT_SET_NO":"999","FILE":"3865354","APOAPSIS":"547.881","ARG_OF_PERICENTER":"57.2110","DECAY_DATE":null,"EPOCH":"2023-03-19T21:13:31.527552","LAUNCH_DATE":"2020-08-07","MEAN_ELEMENT_THEORY":"SGP4"},{"RA_OF_ASC_NODE":"310.9038","INCLINATION":"53.0532","PERIAPSIS":"546.588","CENTER_NAME":"EARTH","TLE_LINE1":"1 46047U 20055W   23078.90373378  .00020386  00000-0  13843-2 0  9993","MEAN_MOTION_DDOT":"0.0000000000000","BSTAR":"0.00138430000000","OBJECT_TYPE":"PAYLOAD","TLE_LINE2":"2 46047  53.0532 310.9038 0000996  92.7466 267.3637 15.06378979145372","MEAN_MOTION":"15.06378979","FILE":"3865354","APOAPSIS":"547.968","ELEMENT_SET_NO":"999","LAUNCH_DATE":"2020-08-07","MEAN_ELEMENT_THEORY":"SGP4","EPOCH":"2023-03-19T21:41:22.598592","DECAY_DATE":null,"ARG_OF_PERICENTER":"92.7466","NORAD_CAT_ID":"46047","OBJECT_NAME":"STARLINK-1524","MEAN_MOTION_DOT":"0.00020386","SEMIMAJOR_AXIS":"6925.413","EPHEMERIS_TYPE":"0","PERIOD":"95.593","CLASSIFICATION_TYPE":"U","RCS_SIZE":"LARGE","COUNTRY_CODE":"US","SITE":"AFETR","ECCENTRICITY":"0.00009960","GP_ID":"228474154","REV_AT_EPOCH":"14537","REF_FRAME":"TEME","TIME_SYSTEM":"UTC","OBJECT_ID":"2020-055W","MEAN_ANOMALY":"267.3637"},{"RA_OF_ASC_NODE":"310.9226","PERIAPSIS":"547.045","CENTER_NAME":"EARTH","INCLINATION":"53.0516","TLE_LINE1":"1 46048U 20055X   23078.90005308  .00017908  00000-0  12176-2 0  9993","BSTAR":"0.00121760000000","MEAN_MOTION_DDOT":"0.0000000000000","OBJECT_TYPE":"PAYLOAD","TLE_LINE2":"2 46048  53.0516 310.9226 0000180  17.5540 342.5455 15.06414366145350","MEAN_MOTION":"15.06414366","FILE":"3865354","APOAPSIS":"547.294","ELEMENT_SET_NO":"999","LAUNCH_DATE":"2020-08-07","MEAN_ELEMENT_THEORY":"SGP4","DECAY_DATE":null,"ARG_OF_PERICENTER":"17.5540","EPOCH":"2023-03-19T21:36:04.586112","NORAD_CAT_ID":"46048","OBJECT_NAME":"STARLINK-1527","MEAN_MOTION_DOT":"0.00017908","SEMIMAJOR_AXIS":"6925.305","PERIOD":"95.591","EPHEMERIS_TYPE":"0","RCS_SIZE":"LARGE","CLASSIFICATION_TYPE":"U","SITE":"AFETR","COUNTRY_CODE":"US","ECCENTRICITY":"0.00001800","REV_AT_EPOCH":"14535","GP_ID":"228472906","REF_FRAME":"TEME","TIME_SYSTEM":"UTC","MEAN_ANOMALY":"342.5455","OBJECT_ID":"2020-055X"},{"ELEMENT_SET_NO":"999","APOAPSIS":"547.923","FILE":"3865354","EPOCH":"2023-03-19T21:30:46.584000","DECAY_DATE":null,"ARG_OF_PERICENTER":"78.3409","MEAN_ELEMENT_THEORY":"SGP4","LAUNCH_DATE":"2020-08-07","BSTAR":"0.00137280000000","MEAN_MOTION_DDOT":"0.0000000000000","TLE_LINE1":"1 46049U 20055Y   23078.89637250  .00020216  00000-0  13728-2 0  9999","INCLINATION":"53.0534","CENTER_NAME":"EARTH","PERIAPSIS":"546.611","RA_OF_ASC_NODE":"310.9346","MEAN_MOTION":"15.06382481","OBJECT_TYPE":"PAYLOAD","TLE_LINE2":"2 46049  53.0534 310.9346 0000947  78.3409 281.7687 15.06382481145380","OBJECT_ID":"2020-055Y","MEAN_ANOMALY":"281.7687","TIME_SYSTEM":"UTC","REF_FRAME":"TEME","GP_ID":"228473156","REV_AT_EPOCH":"14538","CLASSIFICATION_TYPE":"U","RCS_SIZE":"LARGE","EPHEMERIS_TYPE":"0","PERIOD":"95.593","SEMIMAJOR_AXIS":"6925.402","OBJECT_NAME":"STARLINK-1530","NORAD_CAT_ID":"46049","MEAN_MOTION_DOT":"0.00020216","ECCENTRICITY":"0.00009470","COUNTRY_CODE":"US","SITE":"AFETR"},{"FILE":"3865354","APOAPSIS":"547.868","ELEMENT_SET_NO":"999","LAUNCH_DATE":"2020-08-07","MEAN_ELEMENT_THEORY":"SGP4","DECAY_DATE":null,"ARG_OF_PERICENTER":"97.5722","EPOCH":"2023-03-19T22:23:50.885376","RA_OF_ASC_NODE":"310.7740","CENTER_NAME":"EARTH","PERIAPSIS":"546.565","INCLINATION":"53.0529","TLE_LINE1":"1 46051U 20055AA  23078.93322784  .00024413  00000-0  16522-2 0  9998","MEAN_MOTION_DDOT":"0.0000000000000","BSTAR":"0.00165220000000","OBJECT_TYPE":"PAYLOAD","TLE_LINE2":"2 46051  53.0529 310.7740 0000941  97.5722 262.5374 15.06399005145399","MEAN_MOTION":"15.06399005","REV_AT_EPOCH":"14539","GP_ID":"228473907","REF_FRAME":"TEME","TIME_SYSTEM":"UTC","MEAN_ANOMALY":"262.5374","OBJECT_ID":"2020-055AA","NORAD_CAT_ID":"46051","OBJECT_NAME":"STARLINK-1540","MEAN_MOTION_DOT":"0.00024413","SEMIMAJOR_AXIS":"6925.352","PERIOD":"95.592","EPHEMERIS_TYPE":"0","RCS_SIZE":"LARGE","CLASSIFICATION_TYPE":"U","SITE":"AFETR","COUNTRY_CODE":"US","ECCENTRICITY":"0.00009410"},{"FILE":"3865354","APOAPSIS":"548.035","ELEMENT_SET_NO":"999","LAUNCH_DATE":"2020-08-07","MEAN_ELEMENT_THEORY":"SGP4","EPOCH":"2023-03-19T20:27:05.016960","DECAY_DATE":null,"ARG_OF_PERICENTER":"61.1037","RA_OF_ASC_NODE":"311.1306","INCLINATION":"53.0536","CENTER_NAME":"EARTH","PERIAPSIS":"546.372","TLE_LINE1":"1 46052U 20055AB  23078.85214140  .00020242  00000-0  13738-2 0  9998","BSTAR":"0.00137380000000","MEAN_MOTION_DDOT":"0.0000000000000","OBJECT_TYPE":"PAYLOAD","TLE_LINE2":"2 46052  53.0536 311.1306 0001201  61.1037 299.0072 15.06403220145347","MEAN_MOTION":"15.06403220","REV_AT_EPOCH":"14534","GP_ID":"228474655","REF_FRAME":"TEME","TIME_SYSTEM":"UTC","OBJECT_ID":"2020-055AB","MEAN_ANOMALY":"299.0072","NORAD_CAT_ID":"46052","OBJECT_NAME":"STARLINK-1541","MEAN_MOTION_DOT":"0.00020242","SEMIMAJOR_AXIS":"6925.339","EPHEMERIS_TYPE":"0","PERIOD":"95.592","CLASSIFICATION_TYPE":"U","RCS_SIZE":"LARGE","COUNTRY_CODE":"US","SITE":"AFETR","ECCENTRICITY":"0.00012010"},{"MEAN_MOTION":"15.06405432","OBJECT_TYPE":"PAYLOAD","TLE_LINE2":"2 46053  53.0524 310.8248 0000926  60.8101 299.2980 15.06405432145388","TLE_LINE1":"1 46053U 20055AC  23078.92217855  .00018673  00000-0  12690-2 0  9994","BSTAR":"0.00126900000000","MEAN_MOTION_DDOT":"0.0000000000000","RA_OF_ASC_NODE":"310.8248","INCLINATION":"53.0524","PERIAPSIS":"546.556","CENTER_NAME":"EARTH","EPOCH":"2023-03-19T22:07:56.226720","ARG_OF_PERICENTER":"60.8101","DECAY_DATE":null,"MEAN_ELEMENT_THEORY":"SGP4","LAUNCH_DATE":"2020-08-07","ELEMENT_SET_NO":"999","FILE":"3865354","APOAPSIS":"547.838","ECCENTRICITY":"0.00009260","COUNTRY_CODE":"US","SITE":"AFETR","EPHEMERIS_TYPE":"0","PERIOD":"95.592","CLASSIFICATION_TYPE":"U","RCS_SIZE":"LARGE","OBJECT_NAME":"STARLINK-1543","MEAN_MOTION_DOT":"0.00018673","NORAD_CAT_ID":"46053","SEMIMAJOR_AXIS":"6925.332","TIME_SYSTEM":"UTC","OBJECT_ID":"2020-055AC","MEAN_ANOMALY":"299.2980","REV_AT_EPOCH":"14538","GP_ID":"228473407","REF_FRAME":"TEME"},{"ECCENTRICITY":"0.00012330","SITE":"AFETR","COUNTRY_CODE":"US","RCS_SIZE":"LARGE","CLASSIFICATION_TYPE":"U","PERIOD":"95.593","EPHEMERIS_TYPE":"0","SEMIMAJOR_AXIS":"6925.371","OBJECT_NAME":"STARLINK-1548","NORAD_CAT_ID":"46054","MEAN_MOTION_DOT":"0.00024206","MEAN_ANOMALY":"268.4220","OBJECT_ID":"2020-055AD","TIME_SYSTEM":"UTC","REF_FRAME":"TEME","GP_ID":"228473656","REV_AT_EPOCH":"14538","MEAN_MOTION":"15.06392836","OBJECT_TYPE":"PAYLOAD","TLE_LINE2":"2 46054  53.0525 310.7918 0001233  91.6910 268.4220 15.06392836145383","MEAN_MOTION_DDOT":"0.0000000000000","BSTAR":"0.00163870000000","TLE_LINE1":"1 46054U 20055AD  23078.92955582  .00024206  00000-0  16387-2 0  9997","PERIAPSIS":"546.382","CENTER_NAME":"EARTH","INCLINATION":"53.0525","RA_OF_ASC_NODE":"310.7918","DECAY_DATE":null,"ARG_OF_PERICENTER":"91.6910","EPOCH":"2023-03-19T22:18:33.622848","MEAN_ELEMENT_THEORY":"SGP4","LAUNCH_DATE":"2020-08-07","ELEMENT_SET_NO":"999","APOAPSIS":"548.089","FILE":"3865354"},{"BSTAR":"0.00051711000000","MEAN_MOTION_DDOT":"0.0000000000000","TLE_LINE1":"1 46055U 20055AE  23078.91479700  .00007434  00000-0  51711-3 0  9995","INCLINATION":"53.0536","PERIAPSIS":"546.218","CENTER_NAME":"EARTH","RA_OF_ASC_NODE":"310.8520","MEAN_MOTION":"15.06421211","OBJECT_TYPE":"PAYLOAD","TLE_LINE2":"2 46055  53.0536 310.8520 0001344  97.0186 263.0956 15.06421211145381","ELEMENT_SET_NO":"999","APOAPSIS":"548.079","FILE":"3865354","EPOCH":"2023-03-19T21:57:18.460800","ARG_OF_PERICENTER":"97.0186","DECAY_DATE":null,"MEAN_ELEMENT_THEORY":"SGP4","LAUNCH_DATE":"2020-08-07","CLASSIFICATION_TYPE":"U","RCS_SIZE":"LARGE","EPHEMERIS_TYPE":"0","PERIOD":"95.591","SEMIMAJOR_AXIS":"6925.284","MEAN_MOTION_DOT":"0.00007434","OBJECT_NAME":"STARLINK-1554","NORAD_CAT_ID":"46055","ECCENTRICITY":"0.00013440","COUNTRY_CODE":"US","SITE":"AFETR","OBJECT_ID":"2020-055AE","MEAN_ANOMALY":"263.0956","TIME_SYSTEM":"UTC","REF_FRAME":"TEME","REV_AT_EPOCH":"14538","GP_ID":"228474407"},{"MEAN_MOTION":"15.06405734","TLE_LINE2":"2 46056  53.0523 311.0499 0001127 114.1983 245.9124 15.06405734145389","OBJECT_TYPE":"PAYLOAD","BSTAR":"0.00118310000000","MEAN_MOTION_DDOT":"0.0000000000000","TLE_LINE1":"1 46056U 20055AF  23078.86962724  .00017387  00000-0  11831-2 0  9999","PERIAPSIS":"546.415","CENTER_NAME":"EARTH","INCLINATION":"53.0523","RA_OF_ASC_NODE":"311.0499","DECAY_DATE":null,"ARG_OF_PERICENTER":"114.1983","EPOCH":"2023-03-19T20:52:15.793536","LAUNCH_DATE":"2020-08-07","MEAN_ELEMENT_THEORY":"SGP4","ELEMENT_SET_NO":"999","APOAPSIS":"547.976","FILE":"3865354","ECCENTRICITY":"0.00011270","SITE":"AFETR","COUNTRY_CODE":"US","RCS_SIZE":"LARGE","CLASSIFICATION_TYPE":"U","PERIOD":"95.592","EPHEMERIS_TYPE":"0","SEMIMAJOR_AXIS":"6925.331","NORAD_CAT_ID":"46056","OBJECT_NAME":"STARLINK-1561","MEAN_MOTION_DOT":"0.00017387","MEAN_ANOMALY":"245.9124","OBJECT_ID":"2020-055AF","TIME_SYSTEM":"UTC","REF_FRAME":"TEME","REV_AT_EPOCH":"14538","GP_ID":"228474155"}];
